SL-16 R/B               
1 25407U 98045B   26090.32811014 -.00000159  00000+0 -55999-4 0  9998
2 25407  71.0095 136.0716 0008087 335.4215  24.6522 14.16193335430163
ISS (ZARYA)             
1 25544U 98067A   26090.84291376  .00010633  00000+0  20301-3 0  9998
2 25544  51.6336 322.8401 0006220 256.5772 103.4524 15.48686199559768
CZ-4B R/B               
1 25732U 99025C   26090.91003501  .00000086  00000+0  62462-4 0  9997
2 25732  98.6580 134.6607 0035969 281.2679 251.4831 14.18269768391314
OKEAN-O                 
1 25860U 99039A   26090.41678888  .00000920  00000+0  12734-3 0  9998
2 25860  97.9397 150.0826 0000852  97.6619 262.4690 14.80370806437608
SL-16 R/B               
1 25861U 99039B   26090.44377384  .00000783  00000+0  10592-3 0  9996
2 25861  97.9919 149.5029 0014758 181.5878 178.5290 14.81761820440087
DELTA 2 R/B             
1 25876U 99041E   26090.74088199  .00001137  00000+0  22214-3 0  9999
2 25876  51.7608 213.1914 0502630  53.4574 311.1556 14.11889220366140
HELIOS 1B               
1 25977U 99064A   26090.43784911  .00002079  00000+0  23420-3 0  9993
2 25977  98.1675 353.3182 0001730  47.5616 312.5745 14.87783052688490
TERRA                   
1 25994U 99068A   26090.84133810  .00000603  00000+0  13196-3 0  9997
2 25994  97.9546 143.4247 0003620 105.7304 342.3696 14.61038645398312
SL-16 R/B               
1 26070U 00006B   26090.63178767  .00000275  00000+0  16402-3 0  9992
2 26070  71.0029  51.6966 0015511 155.4544 204.7320 14.15829241351666
TITAN 4B R/B            
1 26474U 00047B   26090.89142057  .00004824  00000+0  30073-3 0  9990
2 26474  67.9910 338.0731 0040000   9.3342 350.8541 15.09769164396267
ENVISAT                 
1 27386U 02009A   26090.85527727  .00000169  00000+0  68527-4 0  9994
2 27386  98.3765  43.9299 0001218  82.3149 304.3382 14.39044847262367
IDEFIX & ARIANE 42P R/B 
1 27422U 02021B   26090.59045613  .00000354  00000+0  15081-3 0  9991
2 27422  98.5896  28.9383 0012732 119.9144 240.3305 14.31041145247151
